STARLINK-4697           
1 53726C 22107AC  26123.60256944  .00046491  00000+0  29151-2 0  1237
2 53726  53.2162   7.4811 0001388  98.9397 322.1392 15.08818162    13
STARLINK-4701           
1 53727C 22107AD  26123.58381944  .00046938  00000+0  29428-2 0  1237
2 53727  53.2162   7.6838 0001560  93.5794 165.5202 15.08822059    18
STARLINK-4640           
1 53728C 22107AE  26123.60534722  .00047783  00000+0  29961-2 0  1236
2 53728  53.2161   7.5466 0001405  91.6273 304.4941 15.08817129    19
STARLINK-4651           
1 53729C 22107AF  26123.60256944  .00047507  00000+0  29784-2 0  1231
2 53729  53.2172   7.7172 0001181  92.6524 208.2701 15.08822322    15
STARLINK-4641           
1 53730C 22107AG  26123.59909722  .00049177  00000+0  30857-2 0  1238
2 53730  53.2166   7.6534 0001551  87.5278 234.6275 15.08790994    19
STARLINK-4636           
1 53731C 22107AH  26123.57548611  .00069574  00000+0  37352-2 0  1233
2 53731  53.2132   5.5231 0002502 353.6025 270.7808 15.14391438    18
STARLINK-4661           
1 53732C 22107AJ  26123.57687500  .00045053  00000+0  28247-2 0  1234
2 53732  53.2170   7.8028 0001367  86.1588  89.9213 15.08821747    14
STARLINK-4574           
1 53733C 22107AK  26123.53729167  .00049335  00000+0  30940-2 0  1237
2 53733  53.2175   8.1294 0001338  93.6940 152.3814 15.08810807    19
STARLINK-4616           
1 53734C 22107AL  26123.57131944  .00046210  00000+0  28993-2 0  1236
2 53734  53.2169   7.8193 0001655  84.8042  66.3174 15.08794868    15
STARLINK-4618           
1 53735C 22107AM  26123.61298611  .00046639  00000+0  29240-2 0  1238
2 53735  53.2177  17.3734 0001360  88.1052  54.5146 15.08822823    14
STARLINK-4652           
1 53736C 22107AN  26123.53451389  .00050077  00000+0  31405-2 0  1230
2 53736  53.2177   8.1019 0001368  95.2251 155.7915 15.08809869    10
STARLINK-4662           
1 53738C 22107AQ  26123.61506944  .00044144  00000+0  27680-2 0  1237
2 53738  53.2177  17.3257 0001324  94.9205  79.1554 15.08818029    11
STARLINK-4607           
1 53740C 22107AS  26123.60187500  .00054307  00000+0  34053-2 0  1236
2 53740  53.2174  17.5016 0001283  95.9562 306.3392 15.08812892    14
STARLINK-4637           
1 53742C 22107AU  26123.53312500  .00046588  00000+0  29234-2 0  1237
2 53742  53.2174  17.8494 0001469  89.4293 279.2708 15.08790359    16
STARLINK-4645           
1 53743C 22107AV  26123.57965278  .00046631  00000+0  29235-2 0  1238
2 53743  53.2168  17.7989 0001444  97.0282  84.3502 15.08822500    15
STARLINK-4670           
1 53744C 22107AW  26123.57756944  .00054541  00000+0  34203-2 0  1237
2 53744  53.2171  17.3418 0001347  94.1553 316.2275 15.08809065    19
STARLINK-4656           
1 53745C 22107AX  26123.54493056  .00050268  00000+0  31518-2 0  1235
2 53745  53.2163  17.9933 0001348 118.1558 214.3924 15.08818343    10
STARLINK-4589           
1 53746C 22107AY  26123.55604167  .00049900  00000+0  31289-2 0  1230
2 53746  53.2166  17.8644 0001256  96.0462 337.0409 15.08816814    10
STARLINK-4612           
1 53750C 22107BC  26123.54562500  .00048908  00000+0  30669-2 0  1236
2 53750  53.2164  18.0693 0001705 103.2597 193.1131 15.08813511    13
STARLINK-4718           
1 53773C 22111A   26123.56090278  .00033473  00000+0  20993-2 0  1236
2 53773  53.2174  37.7155 0001377  94.3574 155.2471 15.08817347    17
STARLINK-4719           
1 53774C 22111B   26123.56576389  .00036733  00000+0  23035-2 0  1231
2 53774  53.2173  37.6550 0001516  93.1582 202.8888 15.08818781    10
STARLINK-4722           
1 53775C 22111C   26123.59006944  .00052089  00000+0  32668-2 0  1234
2 53775  53.2175  27.8974 0001361  86.9576 175.9602 15.08807457    17
STARLINK-4664           
1 53777C 22111E   26123.61020833  .00055742  00000+0  34954-2 0  1231
2 53777  53.2171  27.7277 0001216  95.5410 316.8634 15.08810808    17
STARLINK-4709           
1 53778C 22111F   26123.59493056  .00067547  00000+0  42337-2 0  1230
2 53778  53.2174  32.3681 0001279  94.5113  87.6612 15.08822743    10
STARLINK-4706           
1 53779C 22111G   26123.57062500  .00045972  00000+0  28833-2 0  1238
2 53779  53.2170  27.8669 0001323  86.3650 130.9646 15.08809151    14
STARLINK-4678           
1 53780C 22111H   26123.61090278  .00056775  00000+0  35592-2 0  1231
2 53780  53.2174  27.7637 0001431  93.7272 302.4210 15.08820618    10
STARLINK-4462           
1 53781C 22111J   26123.59284722  .00054229  00000+0  34000-2 0  1233
2 53781  53.2166  27.6491 0001413  94.6998 303.4583 15.08817775    18
STARLINK-4679           
1 53782C 22111K   26123.54909722  .00230600  00000+0  31125-2 0  1237
2 53782  53.2178  19.2261 0000793 100.7099 157.4526 15.57047800    17
STARLINK-4536           
1 53783C 22111L   26123.57687500  .00052023  00000+0  32624-2 0  1234
2 53783  53.2169  27.6402 0001557  92.9565 258.4573 15.08810303    13
STARLINK-4687           
1 53784C 22111M   26123.57965278  .00052677  00000+0  33029-2 0  1231
2 53784  53.2167  27.7473 0001406  92.5564 213.8719 15.08815373    18
STARLINK-4743           
1 53787C 22111Q   26123.61229167  .00048832  00000+0  30622-2 0  1233
2 53787  53.2169  27.4017 0001511 100.2508 123.6925 15.08813281    19
STARLINK-4666           
1 53789C 22111S   26123.58451389  .00048313  00000+0  30325-2 0  1238
2 53789  53.2172  27.4097 0001067  82.0038  51.1429 15.08780250    17
STARLINK-4734           
1 53790C 22111T   26123.54701389  .00037887  00000+0  23761-2 0  1234
2 53790  53.2169  27.7348 0001312  93.9175 115.2331 15.08815269    16
STARLINK-4739           
1 53792C 22111V   26123.59770833  .00051260  00000+0  32145-2 0  1238
2 53792  53.2175  27.9783 0001266  96.2895 142.8630 15.08811193    13
STARLINK-4728           
1 53793C 22111W   26123.57756944  .00050562  00000+0  31708-2 0  1232
2 53793  53.2169  27.5162 0001262  98.5777 316.6825 15.08811456    13
STARLINK-4730           
1 53794C 22111X   26123.57548611  .00051302  00000+0  32168-2 0  1237
2 53794  53.2168  27.5754 0001241  96.7872 281.9082 15.08815082    11
STARLINK-4742           
1 53795C 22111Y   26123.55812500  .00047122  00000+0  29546-2 0  1238
2 53795  53.2174  27.4886 0001524  95.0360 274.6281 15.08818229    18
STARLINK-4723           
1 53797C 22111AA  26123.59354167  .00052321  00000+0  32810-2 0  1239
2 53797  53.2176  27.2117 0001308  93.3283 168.8904 15.08810911    18
STARLINK-4712           
1 53798C 22111AB  26123.56923611  .00047457  00000+0  29790-2 0  1230
2 53798  53.2177  27.3597 0001120 109.5530   0.6763 15.08777674    14
STARLINK-4710           
1 53799C 22111AC  26123.56923611  .00050061  00000+0  31394-2 0  1239
2 53799  53.2176  17.8278 0001318  98.7752 140.8239 15.08811085    18
STARLINK-4720           
1 53800C 22111AD  26123.61645833  .00045898  00000+0  62983-3 0  1236
2 53800  53.2090 335.4412 0001237  37.1122 330.1734 15.56695657    15
STARLINK-4715           
1 53801C 22111AE  26123.59631944  .00045599  00000+0  28592-2 0  1237
2 53801  53.2164  17.3829 0001495  95.5321  96.6591 15.08818635    16
STARLINK-4726           
1 53802C 22111AF  26123.54909722  .00048050  00000+0  30134-2 0  1235
2 53802  53.2173  17.7129 0001321  87.4080 148.0854 15.08810423    15
STARLINK-4727           
1 53803C 22111AG  26123.60395833  .00040625  00000+0  25467-2 0  1238
2 53803  53.2161   2.6450 0001422  93.1491   2.8616 15.08828956    18
STARLINK-4729           
1 53804C 22111AH  26123.55812500  .00055561  00000+0  34832-2 0  1239
2 53804  53.2176  12.5895 0001322  96.2045 230.6774 15.08819975    13
STARLINK-4763           
1 53805C 22111AJ  26123.52826389  .00054603  00000+0  34237-2 0  1232
2 53805  53.2165   3.0679 0001331  93.0597 266.3173 15.08814713    18
STARLINK-4768           
1 53806C 22111AK  26123.58173611  .00047080  00000+0  29521-2 0  1233
2 53806  53.2167   2.5437 0001260  98.4014 336.9753 15.08816464    14
STARLINK-4738           
1 53819C 22114B   26123.55395833 -.00004118  00000+0 -25830-3 0  1236
2 53819  53.2164  57.6969 0001414  87.7604 354.1240 15.08832512    18
STARLINK-4758           
1 53820C 22114C   26123.55812500 -.00004797  00000+0 -30090-3 0  1230
2 53820  53.2172  58.0247 0001411  95.3132 189.0025 15.08832873    17
STARLINK-4748           
1 53823C 22114F   26123.59493056  .00048815  00000+0  30636-2 0  1230
2 53823  53.2162  12.6242 0001433 102.3906 169.5787 15.08784545    12
STARLINK-4757           
1 53824C 22114G   26123.56159722  .00000084  00000+0  52616-5 0  1238
2 53824  53.2167  57.1968 0001405  92.3279 271.3904 15.08832696    11
STARLINK-4751           
1 53825C 22114H   26123.57965278  .00010456  00000+0  65581-3 0  1238
2 53825  53.2169  57.8501 0001422  90.9594 350.4101 15.08826143    15
STARLINK-4756           
1 53826C 22114J   26123.57965278  .00010729  00000+0  67280-3 0  1230
2 53826  53.2163  57.6550 0001384  81.6320  99.8422 15.08833654    18
STARLINK-4764           
1 53827C 22114K   26123.56368056  .00000652  00000+0  40860-4 0  1231
2 53827  53.2167  57.8431 0001390  91.5645 303.0339 15.08837848    16
STARLINK-4760           
1 53828C 22114L   26123.55673611 -.00001859  00000+0 -11657-3 0  1230
2 53828  53.2163  57.7186 0001496  90.0845 346.8861 15.08833867    14
STARLINK-4759           
1 53829C 22114M   26123.56159722  .00000520  00000+0  32585-4 0  1230
2 53829  53.2166  57.8137 0001496  87.3793 315.8146 15.08838885    13
STARLINK-4761           
1 53830C 22114N   26123.55881944 -.00001434  00000+0 -89942-4 0  1235
2 53830  53.2163  57.6310 0001377  91.6313  36.6905 15.08836145    15
STARLINK-4649           
1 53831C 22114P   26123.57409722  .00008344  00000+0  52369-3 0  1235
2 53831  53.2164  57.7180 0001278 105.0552  26.3127 15.08802789    17
STARLINK-4747           
1 53832C 22114Q   26123.54006944 -.00010910  00000+0 -68442-3 0  1235
2 53832  53.2166  57.6368 0001388  92.1781 334.3016 15.08827777    12
